[{"OBJECT_NAME":"STARLINK-35513","OBJECT_ID":"2025-225W","EPOCH":"2026-03-09T13:04:57.470304","MEAN_MOTION":15.30176238,"ECCENTRICITY":0.00010752,"INCLINATION":53.1585,"RA_OF_ASC_NODE":166.5137,"ARG_OF_PERICENTER":81.9087,"MEAN_ANOMALY":278.2036,"EPHEMERIS_TYPE":0,"CLASSIFICATION_TYPE":"U","NORAD_CAT_ID":65930,"ELEMENT_SET_NO":999,"REV_AT_EPOCH":2438,"BSTAR":0.00084879455,"MEAN_MOTION_DOT":0.00024845,"MEAN_MOTION_DDOT":0},{"OBJECT_NAME":"FENGYUN 1C DEB","OBJECT_ID":"1999-025BZU","EPOCH":"2026-03-09T17:19:51.665664","MEAN_MOTION":15.28412118,"ECCENTRICITY":0.00188802,"INCLINATION":98.9598,"RA_OF_ASC_NODE":354.2029,"ARG_OF_PERICENTER":82.3682,"MEAN_ANOMALY":277.9697,"EPHEMERIS_TYPE":0,"CLASSIFICATION_TYPE":"U","NORAD_CAT_ID":31614,"ELEMENT_SET_NO":999,"REV_AT_EPOCH":97742,"BSTAR":0.011500831,"MEAN_MOTION_DOT":0.0033373,"MEAN_MOTION_DDOT":0}]
